stk.v.4.3 

BEGIN Ephemeris 
 
NumberOfEphemerisPoints		146 
ScenarioEpoch	    3 Sep 2020 20:18: 3.418558538 
InterpolationMethod		Lagrange 
InterpolationOrder		5 
CentralBody				Earth 
CoordinateSystem			TEME 
CoordinateSystemEpoch	  3 Sep 2020 20:18: 3.418558538 
DistanceUnit			Kilometers 
 
EphemerisTimePosVel 
 
       0.00000000   -6461.91681523    2951.40339978       0.03022043 -0.206791698 -0.418614244  7.426961603
 END Ephemeris 
